{"type": "FeatureCollection", "features": [ {"type": "Feature", "properties": {"norad_id": 33939, "name": "COSMOS 2251 DEB", "group": "cosmos-2251-debris", "lat": -18.50669260795949, "lon": 79.2571019765865, "alt_km": 572.621570425551, "timestamp": "2025-12-10T16:57:12.032034+00:00", "meta": {"OBJECT_NAME": "COSMOS 2251 DEB", "OBJECT_ID": "1993-036EU", "EPOCH": "2025-12-10T09:02:01.018752", "MEAN_MOTION": 14.99589669, "ECCENTRICITY": 0.000321, "INCLINATION": 74.0071, "RA_OF_ASC_NODE": 85.4372, "ARG_OF_PERICENTER": 67.7015, "MEAN_ANOMALY": 292.4511, "EPHEMERIS_TYPE": 0, "CLASSIFICATION_TYPE": "U", "NORAD_CAT_ID": 33939, "ELEMENT_SET_NO": 999, "REV_AT_EPOCH": 88717, "BSTAR": 0.0051387, "MEAN_MOTION_DOT": 0.00063795, "MEAN_MOTION_DDOT": 0}, "tle": {"line1": "1 33939U 93036EU  25344.37640068  .00063795  00000+0  51387-2 0  9995", "line2": "2 33939  74.0071  85.4372 0003210  67.7015 292.4511 14.99589669887170"}}, "geometry": {"type": "Point", "coordinates": [79.2571019765865, -18.50669260795949]}}, {"type": "Feature", "properties": {"norad_id": 33940, "name": "COSMOS 2251 DEB", "group": "cosmos-2251-debris", "lat": 48.460749900878675, "lon": 166.21448112484234, "alt_km": 700.5587487132116, "timestamp": "2025-12-10T16:57:12.032045+00:00", "meta": {"OBJECT_NAME": "COSMOS 2251 DEB", "OBJECT_ID": "1993-036EV", "EPOCH": "2025-12-10T10:15:34.473312", "MEAN_MOTION": 14.58754872, "ECCENTRICITY": 0.0011443, "INCLINATION": 74.04, "RA_OF_ASC_NODE": 147.8996, "ARG_OF_PERICENTER": 227.6942, "MEAN_ANOMALY": 159.4253, "EPHEMERIS_TYPE": 0, "CLASSIFICATION_TYPE": "U", "NORAD_CAT_ID": 33940, "ELEMENT_SET_NO": 999, "REV_AT_EPOCH": 88560, "BSTAR": 0.0016902, "MEAN_MOTION_DOT": 7.881e-05, "MEAN_MOTION_DDOT": 0}, "tle": {"line1": "1 33940U 93036EV  25344.42748233  .00007881  00000+0  16902-2 0  9994", "line2": "2 33940  74.0400 147.8996 0011443 227.6942 159.4253 14.58754872885602"}}, "geometry": {"type": "Point", "coordinates": [166.21448112484234, 48.460749900878675]}}, {"type": "Feature", "properties": {"norad_id": 33942, "name": "COSMOS 2251 DEB", "group": "cosmos-2251-debris", "lat": 38.727308019030595, "lon": -68.15609108777046, "alt_km": 750.5799870494147, "timestamp": "2025-12-10T16:57:12.032055+00:00", "meta": {"OBJECT_NAME": "COSMOS 2251 DEB", "OBJECT_ID": "1993-036EX", "EPOCH": "2025-12-10T07:17:49.133760", "MEAN_MOTION": 14.37983025, "ECCENTRICITY": 0.0020201, "INCLINATION": 74.0366, "RA_OF_ASC_NODE": 279.3143, "ARG_OF_PERICENTER": 3.0809, "MEAN_ANOMALY": 115.4408, "EPHEMERIS_TYPE": 0, "CLASSIFICATION_TYPE": "U", "NORAD_CAT_ID": 33942, "ELEMENT_SET_NO": 999, "REV_AT_EPOCH": 88099, "BSTAR": 0.00040286, "MEAN_MOTION_DOT": 1.195e-05, "MEAN_MOTION_DDOT": 0}, "tle": {"line1": "1 33942U 93036EX  25344.30404090  .00001195  00000+0  40286-3 0  9998", "line2": "2 33942  74.0366 279.3143 0020201   3.0809 115.4408 14.37983025880992"}}, "geometry": {"type": "Point", "coordinates": [-68.15609108777046, 38.727308019030595]}}, {"type": "Feature", "properties": {"norad_id": 33944, "name": "COSMOS 2251 DEB", "group": "cosmos-2251-debris", "lat": -71.82660308848325, "lon": -107.99720354485245, "alt_km": 829.4411266203306, "timestamp": "2025-12-10T16:57:12.032064+00:00", "meta": {"OBJECT_NAME": "COSMOS 2251 DEB", "OBJECT_ID": "1993-036EZ", "EPOCH": "2025-12-10T09:42:18.610848", "MEAN_MOTION": 14.37335372, "ECCENTRICITY": 0.0112109, "INCLINATION": 74.0401, "RA_OF_ASC_NODE": 313.2226, "ARG_OF_PERICENTER": 53.4325, "MEAN_ANOMALY": 104.2266, "EPHEMERIS_TYPE": 0, "CLASSIFICATION_TYPE": "U", "NORAD_CAT_ID": 33944, "ELEMENT_SET_NO": 999, "REV_AT_EPOCH": 87994, "BSTAR": 0.00054444, "MEAN_MOTION_DOT": 1.72e-05, "MEAN_MOTION_DDOT": 0}, "tle": {"line1": "1 33944U 93036EZ  25344.40438207  .00001720  00000+0  54444-3 0  9993", "line2": "2 33944  74.0401 313.2226 0112109  53.4325 104.2266 14.37335372879942"}}, "geometry": {"type": "Point", "coordinates": [-107.99720354485245, -71.82660308848325]}}, {"type": "Feature", "properties": {"norad_id": 33945, "name": "COSMOS 2251 DEB", "group": "cosmos-2251-debris", "lat": 73.77923866811936, "lon": 50.13839811417285, "alt_km": 760.2074403548759, "timestamp": "2025-12-10T16:57:12.032075+00:00", "meta": {"OBJECT_NAME": "COSMOS 2251 DEB", "OBJECT_ID": "1993-036FA", "EPOCH": "2025-12-10T08:09:21.547008", "MEAN_MOTION": 14.34597949, "ECCENTRICITY": 0.0021807, "INCLINATION": 74.0296, "RA_OF_ASC_NODE": 310.6646, "ARG_OF_PERICENTER": 37.7393, "MEAN_ANOMALY": 322.5284, "EPHEMERIS_TYPE": 0, "CLASSIFICATION_TYPE": "U", "NORAD_CAT_ID": 33945, "ELEMENT_SET_NO": 999, "REV_AT_EPOCH": 87981, "BSTAR": 0.00023988, "MEAN_MOTION_DOT": 6.53e-06, "MEAN_MOTION_DDOT": 0}, "tle": {"line1": "1 33945U 93036FA  25344.33983272  .00000653  00000+0  23988-3 0  9996", "line2": "2 33945  74.0296 310.6646 0021807  37.7393 322.5284 14.34597949879814"}}, "geometry": {"type": "Point", "coordinates": [50.13839811417285, 73.77923866811936]}}, {"type": "Feature", "properties": {"norad_id": 33948, "name": "COSMOS 2251 DEB", "group": "cosmos-2251-debris", "lat": -61.65446194063383, "lon": -83.18303848706302, "alt_km": 780.1876074634911, "timestamp": "2025-12-10T16:57:12.032085+00:00", "meta": {"OBJECT_NAME": "COSMOS 2251 DEB", "OBJECT_ID": "1993-036FD", "EPOCH": "2025-12-10T07:13:34.759200", "MEAN_MOTION": 14.35624748, "ECCENTRICITY": 0.0022609, "INCLINATION": 74.0355, "RA_OF_ASC_NODE": 309.6084, "ARG_OF_PERICENTER": 26.1107, "MEAN_ANOMALY": 334.118, "EPHEMERIS_TYPE": 0, "CLASSIFICATION_TYPE": "U", "NORAD_CAT_ID": 33948, "ELEMENT_SET_NO": 999, "REV_AT_EPOCH": 87988, "BSTAR": 0.00033876, "MEAN_MOTION_DOT": 9.54e-06, "MEAN_MOTION_DDOT": 0}, "tle": {"line1": "1 33948U 93036FD  25344.30109675  .00000954  00000+0  33876-3 0  9994", "line2": "2 33948  74.0355 309.6084 0022609  26.1107 334.1180 14.35624748879883"}}, "geometry": {"type": "Point", "coordinates": [-83.18303848706302, -61.65446194063383]}}, {"type": "Feature", "properties": {"norad_id": 33971, "name": "COSMOS 2251 DEB", "group": "cosmos-2251-debris", "lat": -27.096616477612997, "lon": -110.9369072870144, "alt_km": 753.0213570434935, "timestamp": "2025-12-10T16:57:12.032095+00:00", "meta": {"OBJECT_NAME": "COSMOS 2251 DEB", "OBJECT_ID": "1993-036FE", "EPOCH": "2025-12-10T06:11:10.563360", "MEAN_MOTION": 14.39718544, "ECCENTRICITY": 0.0018436, "INCLINATION": 74.0252, "RA_OF_ASC_NODE": 258.3198, "ARG_OF_PERICENTER": 359.2233, "MEAN_ANOMALY": 168.3982, "EPHEMERIS_TYPE": 0, "CLASSIFICATION_TYPE": "U", "NORAD_CAT_ID": 33971, "ELEMENT_SET_NO": 999, "REV_AT_EPOCH": 88103, "BSTAR": 0.00048193, "MEAN_MOTION_DOT": 1.486e-05, "MEAN_MOTION_DDOT": 0}, "tle": {"line1": "1 33971U 93036FE  25344.25776115  .00001486  00000+0  48193-3 0  9992", "line2": "2 33971  74.0252 258.3198 0018436 359.2233 168.3982 14.39718544881033"}}, "geometry": {"type": "Point", "coordinates": [-110.9369072870144, -27.096616477612997]}}, {"type": "Feature", "properties": {"norad_id": 33972, "name": "COSMOS 2251 DEB", "group": "cosmos-2251-debris", "lat": -61.250079638962625, "lon": 162.86214678834713, "alt_km": 744.4191411225784, "timestamp": "2025-12-10T16:57:12.032105+00:00", "meta": {"OBJECT_NAME": "COSMOS 2251 DEB", "OBJECT_ID": "1993-036FF", "EPOCH": "2025-12-10T08:02:59.970912", "MEAN_MOTION": 14.36194239, "ECCENTRICITY": 0.0123165, "INCLINATION": 73.9945, "RA_OF_ASC_NODE": 195.092, "ARG_OF_PERICENTER": 3.3316, "MEAN_ANOMALY": 174.9516, "EPHEMERIS_TYPE": 0, "CLASSIFICATION_TYPE": "U", "NORAD_CAT_ID": 33972, "ELEMENT_SET_NO": 999, "REV_AT_EPOCH": 87039, "BSTAR": 0.0014509, "MEAN_MOTION_DOT": 4.59e-05, "MEAN_MOTION_DDOT": 0}, "tle": {"line1": "1 33972U 93036FF  25344.33541633  .00004590  00000+0  14509-2 0  9999", "line2": "2 33972  73.9945 195.0920 0123165   3.3316 174.9516 14.36194239870395"}}, "geometry": {"type": "Point", "coordinates": [162.86214678834713, -61.250079638962625]}}, {"type": "Feature", "properties": {"norad_id": 33973, "name": "COSMOS 2251 DEB", "group": "cosmos-2251-debris", "lat": -19.66026423771861, "lon": 100.80852648366647, "alt_km": 725.7238660660996, "timestamp": "2025-12-10T16:57:12.032115+00:00", "meta": {"OBJECT_NAME": "COSMOS 2251 DEB", "OBJECT_ID": "1993-036FG", "EPOCH": "2025-12-10T10:42:05.925024", "MEAN_MOTION": 14.45386914, "ECCENTRICITY": 0.0047285, "INCLINATION": 74.0081, "RA_OF_ASC_NODE": 107.1754, "ARG_OF_PERICENTER": 286.0162, "MEAN_ANOMALY": 138.3008, "EPHEMERIS_TYPE": 0, "CLASSIFICATION_TYPE": "U", "NORAD_CAT_ID": 33973, "ELEMENT_SET_NO": 999, "REV_AT_EPOCH": 88567, "BSTAR": 0.00025499, "MEAN_MOTION_DOT": 8.81e-06, "MEAN_MOTION_DDOT": 0}, "tle": {"line1": "1 33973U 93036FG  25344.44590191  .00000881  00000+0  25499-3 0  9995", "line2": "2 33973  74.0081 107.1754 0047285 286.0162 138.3008 14.45386914885675"}}, "geometry": {"type": "Point", "coordinates": [100.80852648366647, -19.66026423771861]}}, {"type": "Feature", "properties": {"norad_id": 33975, "name": "COSMOS 2251 DEB", "group": "cosmos-2251-debris", "lat": -64.09499547724864, "lon": -55.212616975019124, "alt_km": 775.6885136997862, "timestamp": "2025-12-10T16:57:12.032125+00:00", "meta": {"OBJECT_NAME": "COSMOS 2251 DEB", "OBJECT_ID": "1993-036FJ", "EPOCH": "2025-12-10T07:11:31.966656", "MEAN_MOTION": 14.00516982, "ECCENTRICITY": 0.0191361, "INCLINATION": 73.8024, "RA_OF_ASC_NODE": 88.742, "ARG_OF_PERICENTER": 221.9997, "MEAN_ANOMALY": 136.6332, "EPHEMERIS_TYPE": 0, "CLASSIFICATION_TYPE": "U", "NORAD_CAT_ID": 33975, "ELEMENT_SET_NO": 999, "REV_AT_EPOCH": 85795, "BSTAR": 0.0010806, "MEAN_MOTION_DOT": 1.854e-05, "MEAN_MOTION_DDOT": 0}, "tle": {"line1": "1 33975U 93036FJ  25344.29967554  .00001854  00000+0  10806-2 0  9997", "line2": "2 33975  73.8024  88.7420 0191361 221.9997 136.6332 14.00516982857956"}}, "geometry": {"type": "Point", "coordinates": [-55.212616975019124, -64.09499547724864]}}]}